STARLINK-4162           
1 53288U 22086AY  26068.59646879 -.00000676  00000+0 -24361-4 0  9990
2 53288  53.2179 184.5410 0001205  92.8536 267.2594 15.08840174201173
DISKSAT C               
1 67219U 25305A   26068.80315184  .00011541  00000+0  75564-3 0  9993
2 67219  45.0017 250.1278 0004534 310.7706  49.2776 15.07852977 12312
